[{"OBJECT_NAME":"LEMUR-2-MJR092620","OBJECT_ID":"2023-174CN","EPOCH":"2026-04-25T18:59:53.432160","MEAN_MOTION":15.43286181,"ECCENTRICITY":0.0005152,"INCLINATION":97.3958,"RA_OF_ASC_NODE":204.9345,"ARG_OF_PERICENTER":314.1864,"MEAN_ANOMALY":45.8959,"EPHEMERIS_TYPE":0,"CLASSIFICATION_TYPE":"U","NORAD_CAT_ID":58340,"ELEMENT_SET_NO":999,"REV_AT_EPOCH":13756,"BSTAR":0.00025475,"MEAN_MOTION_DOT":0.00011254,"MEAN_MOTION_DDOT":0},{"OBJECT_NAME":"LEMUR-2-NIMBUS2000","OBJECT_ID":"2024-022A","EPOCH":"2026-04-25T13:08:32.953632","MEAN_MOTION":15.38333532,"ECCENTRICITY":0.0007707,"INCLINATION":97.4179,"RA_OF_ASC_NODE":324.9397,"ARG_OF_PERICENTER":313.3277,"MEAN_ANOMALY":46.7325,"EPHEMERIS_TYPE":0,"CLASSIFICATION_TYPE":"U","NORAD_CAT_ID":58899,"ELEMENT_SET_NO":999,"REV_AT_EPOCH":12417,"BSTAR":0.00039918,"MEAN_MOTION_DOT":0.00015026,"MEAN_MOTION_DDOT":0},{"OBJECT_NAME":"LEMUR-2-VALHALLA","OBJECT_ID":"2024-022B","EPOCH":"2026-04-25T12:49:19.897248","MEAN_MOTION":15.38079796,"ECCENTRICITY":0.0008144,"INCLINATION":97.4176,"RA_OF_ASC_NODE":324.9409,"ARG_OF_PERICENTER":307.4615,"MEAN_ANOMALY":52.5888,"EPHEMERIS_TYPE":0,"CLASSIFICATION_TYPE":"U","NORAD_CAT_ID":58900,"ELEMENT_SET_NO":999,"REV_AT_EPOCH":12417,"BSTAR":0.00040567,"MEAN_MOTION_DOT":0.00015148,"MEAN_MOTION_DDOT":0},{"OBJECT_NAME":"LEMUR-2-OBA-NI-JESU","OBJECT_ID":"2024-022D","EPOCH":"2026-04-25T14:29:21.045984","MEAN_MOTION":15.77623623,"ECCENTRICITY":0.0003584,"INCLINATION":97.3962,"RA_OF_ASC_NODE":336.4569,"ARG_OF_PERICENTER":213.9975,"MEAN_ANOMALY":146.1062,"EPHEMERIS_TYPE":0,"CLASSIFICATION_TYPE":"U","NORAD_CAT_ID":58902,"ELEMENT_SET_NO":999,"REV_AT_EPOCH":12496,"BSTAR":0.00094802,"MEAN_MOTION_DOT":0.00160166,"MEAN_MOTION_DDOT":0},{"OBJECT_NAME":"LEMUR-2-CAEL","OBJECT_ID":"2024-022E","EPOCH":"2026-04-25T12:30:53.512416","MEAN_MOTION":15.39271165,"ECCENTRICITY":0.0006318,"INCLINATION":97.4159,"RA_OF_ASC_NODE":325.7758,"ARG_OF_PERICENTER":287.6049,"MEAN_ANOMALY":72.4506,"EPHEMERIS_TYPE":0,"CLASSIFICATION_TYPE":"U","NORAD_CAT_ID":58903,"ELEMENT_SET_NO":999,"REV_AT_EPOCH":12423,"BSTAR":0.00039939,"MEAN_MOTION_DOT":0.00015497,"MEAN_MOTION_DDOT":0},{"OBJECT_NAME":"LEMUR-2-JOHNNYTRUONG","OBJECT_ID":"2024-043BA","EPOCH":"2026-04-25T08:55:48.329760","MEAN_MOTION":15.56635602,"ECCENTRICITY":0.0003834,"INCLINATION":97.5329,"RA_OF_ASC_NODE":263.9812,"ARG_OF_PERICENTER":24.579,"MEAN_ANOMALY":335.5646,"EPHEMERIS_TYPE":0,"CLASSIFICATION_TYPE":"U","NORAD_CAT_ID":59146,"ELEMENT_SET_NO":999,"REV_AT_EPOCH":11981,"BSTAR":0.00055483,"MEAN_MOTION_DOT":0.0003954,"MEAN_MOTION_DDOT":0},{"OBJECT_NAME":"LEMUR-2-TOMATOKECHUP","OBJECT_ID":"2024-149D","EPOCH":"2026-04-25T18:38:26.873088","MEAN_MOTION":15.34926755,"ECCENTRICITY":0.0003182,"INCLINATION":97.3798,"RA_OF_ASC_NODE":197.7351,"ARG_OF_PERICENTER":83.8907,"MEAN_ANOMALY":276.2699,"EPHEMERIS_TYPE":0,"CLASSIFICATION_TYPE":"U","NORAD_CAT_ID":60471,"ELEMENT_SET_NO":999,"REV_AT_EPOCH":9412,"BSTAR":0.00033257,"MEAN_MOTION_DOT":0.00011191,"MEAN_MOTION_DDOT":0},{"OBJECT_NAME":"LEMUR-2-STELLA","OBJECT_ID":"2024-149BT","EPOCH":"2026-04-25T18:32:56.451840","MEAN_MOTION":15.106369,"ECCENTRICITY":0.0001478,"INCLINATION":97.6732,"RA_OF_ASC_NODE":198.0487,"ARG_OF_PERICENTER":134.0109,"MEAN_ANOMALY":226.1243,"EPHEMERIS_TYPE":0,"CLASSIFICATION_TYPE":"U","NORAD_CAT_ID":60533,"ELEMENT_SET_NO":999,"REV_AT_EPOCH":9258,"BSTAR":0.00075698,"MEAN_MOTION_DOT":0.00012464,"MEAN_MOTION_DDOT":0},{"OBJECT_NAME":"LEMUR-2-MARHISYAM","OBJECT_ID":"2024-149BW","EPOCH":"2026-04-25T19:13:56.749728","MEAN_MOTION":15.10144205,"ECCENTRICITY":4.86e-5,"INCLINATION":97.6873,"RA_OF_ASC_NODE":198.4709,"ARG_OF_PERICENTER":326.9369,"MEAN_ANOMALY":33.1829,"EPHEMERIS_TYPE":0,"CLASSIFICATION_TYPE":"U","NORAD_CAT_ID":60536,"ELEMENT_SET_NO":999,"REV_AT_EPOCH":9257,"BSTAR":0.00073825,"MEAN_MOTION_DOT":0.00011989,"MEAN_MOTION_DDOT":0},{"OBJECT_NAME":"LEMUR-2-AHMED-ASRAR","OBJECT_ID":"2024-149DN","EPOCH":"2026-04-25T19:37:35.472288","MEAN_MOTION":15.11501436,"ECCENTRICITY":0.0003091,"INCLINATION":97.6996,"RA_OF_ASC_NODE":200.3839,"ARG_OF_PERICENTER":148.8108,"MEAN_ANOMALY":211.3305,"EPHEMERIS_TYPE":0,"CLASSIFICATION_TYPE":"U","NORAD_CAT_ID":60576,"ELEMENT_SET_NO":999,"REV_AT_EPOCH":9265,"BSTAR":0.000773,"MEAN_MOTION_DOT":0.00013039,"MEAN_MOTION_DDOT":0},{"OBJECT_NAME":"LEMUR-2-LLOYD","OBJECT_ID":"2024-149DP","EPOCH":"2026-04-25T18:42:09.142272","MEAN_MOTION":15.08200562,"ECCENTRICITY":0.0002796,"INCLINATION":97.6738,"RA_OF_ASC_NODE":196.9236,"ARG_OF_PERICENTER":343.6847,"MEAN_ANOMALY":16.429,"EPHEMERIS_TYPE":0,"CLASSIFICATION_TYPE":"U","NORAD_CAT_ID":60577,"ELEMENT_SET_NO":999,"REV_AT_EPOCH":9249,"BSTAR":0.00070832,"MEAN_MOTION_DOT":0.00010903,"MEAN_MOTION_DDOT":0},{"OBJECT_NAME":"LEMUR-2-SQUIRRELCOMM","OBJECT_ID":"2024-149DQ","EPOCH":"2026-04-25T17:28:39.489312","MEAN_MOTION":15.06519365,"ECCENTRICITY":0.0004843,"INCLINATION":97.6706,"RA_OF_ASC_NODE":196.8311,"ARG_OF_PERICENTER":215.5957,"MEAN_ANOMALY":144.4947,"EPHEMERIS_TYPE":0,"CLASSIFICATION_TYPE":"U","NORAD_CAT_ID":60578,"ELEMENT_SET_NO":999,"REV_AT_EPOCH":9250,"BSTAR":0.00038335,"MEAN_MOTION_DOT":5.605e-5,"MEAN_MOTION_DDOT":0},{"OBJECT_NAME":"LEMUR-2-SIERRINI","OBJECT_ID":"2024-149DR","EPOCH":"2026-04-25T17:56:27.328128","MEAN_MOTION":15.09823214,"ECCENTRICITY":0.0004746,"INCLINATION":97.6838,"RA_OF_ASC_NODE":198.157,"ARG_OF_PERICENTER":17.0685,"MEAN_ANOMALY":343.0703,"EPHEMERIS_TYPE":0,"CLASSIFICATION_TYPE":"U","NORAD_CAT_ID":60579,"ELEMENT_SET_NO":999,"REV_AT_EPOCH":9254,"BSTAR":0.00068427,"MEAN_MOTION_DOT":0.00011011,"MEAN_MOTION_DDOT":0},{"OBJECT_NAME":"LEMUR-2-WILSON","OBJECT_ID":"2025-009CP","EPOCH":"2026-04-25T18:09:15.005088","MEAN_MOTION":14.94927849,"ECCENTRICITY":0.0002993,"INCLINATION":97.7031,"RA_OF_ASC_NODE":195.1492,"ARG_OF_PERICENTER":184.3091,"MEAN_ANOMALY":175.8105,"EPHEMERIS_TYPE":0,"CLASSIFICATION_TYPE":"U","NORAD_CAT_ID":62694,"ELEMENT_SET_NO":999,"REV_AT_EPOCH":6952,"BSTAR":0.00021194,"MEAN_MOTION_DOT":2.256e-5,"MEAN_MOTION_DDOT":0},{"OBJECT_NAME":"LEMUR-2-STAR-FOX","OBJECT_ID":"2025-009CR","EPOCH":"2026-04-25T17:35:26.002176","MEAN_MOTION":15.01724235,"ECCENTRICITY":0.0001385,"INCLINATION":97.6924,"RA_OF_ASC_NODE":197.7776,"ARG_OF_PERICENTER":89.6759,"MEAN_ANOMALY":270.4624,"EPHEMERIS_TYPE":0,"CLASSIFICATION_TYPE":"U","NORAD_CAT_ID":62696,"ELEMENT_SET_NO":999,"REV_AT_EPOCH":6968,"BSTAR":0.00052853,"MEAN_MOTION_DOT":6.819e-5,"MEAN_MOTION_DDOT":0},{"OBJECT_NAME":"LEMUR-2-ARIANNA","OBJECT_ID":"2025-009CU","EPOCH":"2026-04-25T19:06:38.891808","MEAN_MOTION":15.01629715,"ECCENTRICITY":0.000115,"INCLINATION":97.6847,"RA_OF_ASC_NODE":197.6596,"ARG_OF_PERICENTER":57.0756,"MEAN_ANOMALY":303.0579,"EPHEMERIS_TYPE":0,"CLASSIFICATION_TYPE":"U","NORAD_CAT_ID":62699,"ELEMENT_SET_NO":999,"REV_AT_EPOCH":6969,"BSTAR":0.00060423,"MEAN_MOTION_DOT":7.786e-5,"MEAN_MOTION_DDOT":0}]
